NORAD_CAT_ID,OBJECT_NAME,OBJECT_TYPE,EPOCH,MEAN_MOTION,ECCENTRICITY,INCLINATION,RA_OF_ASC_NODE,ARG_OF_PERICENTER,MEAN_ANOMALY,BSTAR,MEAN_MOTION_DOT,MEAN_MOTION_DDOT,TLE_LINE0,TLE_LINE1,TLE_LINE2,SEMIMAJOR_AXIS,PERIOD,APOGEE,PERIGEE,DECAYED
49452.0,STARLINK-3150,PAYLOAD,2022-03-05 20:00:01,15.08857831,0.0002123,53.2167,315.1001,53.0804,308.9158,-0.001196,-0.00019282,0.0,0 STARLINK-3150,1 49452U 21104AW  22064.83334491 -.00019282  00000-0 -11960-2 0  9994,2 49452  53.2167 315.1001 0002123  53.0804 308.9158 15.08857831 18716,6917.826,95.436,541.16,538.222,0.0
49452.0,STARLINK-3150,PAYLOAD,2022-03-05 22:00:01,15.08855891,0.000217,53.2165,314.7265,51.2095,43.7527,-0.0013295,-0.00021395,0.0,0 STARLINK-3150,1 49452U 21104AW  22064.91668981 -.00021395  00000-0 -13295-2 0  9998,2 49452  53.2165 314.7265 0002170  51.2095  43.7527 15.08855891  3616,6917.831999999999,95.437,541.198,538.196,0.0
49452.0,STARLINK-3150,PAYLOAD,2022-03-06 12:00:00,15.08820625,0.0001955,53.2167,312.1065,51.8812,333.3452,0.0026664,0.00042381,0.0,0 STARLINK-3150,1 49452U 21104AW  22065.50001157  .00042381  00000-0  26664-2 0  9990,2 49452  53.2167 312.1065 0001955  51.8812 333.3452 15.08820625 18811,6917.94,95.439,541.1569999999998,538.452,0.0
49452.0,STARLINK-3150,PAYLOAD,2022-03-06 14:00:01,15.08828844,0.0001956,53.2167,311.7321,52.3763,65.7483,0.0023504,0.00037306,0.0,0 STARLINK-3150,1 49452U 21104AW  22065.58334491  .00037306  00000-0  23504-2 0  9999,2 49452  53.2167 311.7321 0001956  52.3763  65.7483 15.08828844  3571,6917.9140000000025,95.438,541.133,538.4259999999998,0.0
49452.0,STARLINK-3150,PAYLOAD,2022-03-06 22:00:00,15.08847549,0.0002044,53.2167,310.2371,49.0139,80.7133,-0.0018047,-0.00028902,0.0,0 STARLINK-3150,1 49452U 21104AW  22065.91667824 -.00028902  00000-0 -18047-2 0  9995,2 49452  53.2167 310.2371 0002044  49.0139  80.7133 15.08847549  3605,6917.857,95.437,541.136,538.308,0.0
49452.0,STARLINK-3150,PAYLOAD,2022-03-07 04:00:00,15.08828529,0.0002047,53.2166,309.1152,44.5672,3.8511,0.00088006,0.00013742,0.0,0 STARLINK-3150,1 49452U 21104AW  22066.16667824  .00013742  00000-0  88006-3 0  9990,2 49452  53.2166 309.1152 0002047  44.5672   3.8511 15.08828529 18927,6917.915,95.438,541.197,538.364,0.0
49452.0,STARLINK-3150,PAYLOAD,2022-03-07 12:00:00,15.08799348,0.0001797,53.2167,307.6171,49.716,10.3021,0.0026239,0.00041672,0.0,0 STARLINK-3150,1 49452U 21104AW  22066.50001157  .00041672  00000-0  26239-2 0  9991,2 49452  53.2167 307.6171 0001797  49.7160  10.3021 15.08799348  3639,6918.005,95.44,541.113,538.626,0.0
49452.0,STARLINK-3150,PAYLOAD,2022-03-07 20:00:01,15.0883324,0.0001922,53.2169,306.1216,49.0986,22.4584,-0.0015593,-0.00025015,0.0,0 STARLINK-3150,1 49452U 21104AW  22066.83334491 -.00025015  00000-0 -15593-2 0  9993,2 49452  53.2169 306.1216 0001922  49.0986  22.4584 15.08833240 19022,6917.901,95.438,541.096,538.436,0.0
49452.0,STARLINK-3150,PAYLOAD,2022-03-07 22:00:00,15.08824428,0.0001978,53.2167,305.7479,47.7534,116.7007,-0.00074164,-0.00012067,0.0,0 STARLINK-3150,1 49452U 21104AW  22066.91667824 -.00012067  00000-0 -74164-3 0  9994,2 49452  53.2167 305.7479 0001978  47.7534 116.7007 15.08824428  3580,6917.928000000001,95.439,541.161,538.425,0.0
49452.0,STARLINK-3150,PAYLOAD,2022-03-08 12:00:00,15.08807779,0.0001804,53.2165,303.1278,51.3315,43.3855,0.0029948,0.00047655,0.0,0 STARLINK-3150,1 49452U 21104AW  22067.50001157  .00047655  00000-0  29948-2 0  9999,2 49452  53.2165 303.1278 0001804  51.3315  43.3855 15.08807779 19126,6917.979,95.44,541.092,538.596,0.0
49452.0,STARLINK-3150,PAYLOAD,2022-03-08 14:00:01,15.08816925,0.0001827,53.2166,302.7536,53.1328,134.4745,0.0024918,0.00039567,0.0,0 STARLINK-3150,1 49452U 21104AW  22067.58334491  .00039567  00000-0  24918-2 0  9992,2 49452  53.2166 302.7536 0001827  53.1328 134.4745 15.08816925  3562,6917.951,95.439,541.08,538.552,0.0
49452.0,STARLINK-3150,PAYLOAD,2022-03-08 22:00:00,15.08841355,0.0001984,53.2165,301.2589,49.3915,149.8024,-0.0004454,-7.37e-05,0.0,0 STARLINK-3150,1 49452U 21104AW  22067.91667824 -.00007370  00000-0 -44540-3 0  9991,2 49452  53.2165 301.2589 0001984  49.3915 149.8024 15.08841355  3594,6917.876,95.437,541.114,538.369,0.0
49452.0,STARLINK-3150,PAYLOAD,2022-03-09 04:00:00,15.08842795,0.0001991,53.2161,300.1367,46.4684,71.4195,0.00038234,5.803e-05,0.0,0 STARLINK-3150,1 49452U 21104AW  22068.16667824  .00005803  00000-0  38234-3 0  9999,2 49452  53.2161 300.1367 0001991  46.4684  71.4195 15.08842795 19226,6917.871999999999,95.437,541.114,538.359,0.0
49452.0,STARLINK-3150,PAYLOAD,2022-03-09 14:00:01,15.08813916,0.000176,53.2161,298.2644,53.4448,168.9399,0.0016997,0.00026847,0.0,0 STARLINK-3150,1 49452U 21104AW  22068.58334491  .00026847  00000-0  16997-2 0  9998,2 49452  53.2161 298.2644 0001760  53.4448 168.9399 15.08813916  3618,6917.96,95.439,541.043,538.6080000000002,0.0
49452.0,STARLINK-3150,PAYLOAD,2022-03-09 20:00:01,15.08836876,0.0001881,53.2161,297.1435,50.4675,90.5945,-0.0015007999999999,-0.00024092,0.0,0 STARLINK-3150,1 49452U 21104AW  22068.83334491 -.00024092  00000-0 -15008-2 0  9990,2 49452  53.2161 297.1435 0001881  50.4675  90.5945 15.08836876 19329,6917.89,95.438,541.056,538.4540000000002,0.0
49452.0,STARLINK-3150,PAYLOAD,2022-03-09 22:00:01,15.08825418,0.0001943,53.216,296.7698,49.1022,184.9214,-0.00019953,-3.461e-05,0.0,0 STARLINK-3150,1 49452U 21104AW  22068.91668981 -.00003461  00000-0 -19953-3 0  9994,2 49452  53.2160 296.7698 0001943  49.1022 184.9214 15.08825418  3593,6917.925,95.438,541.134,538.446,0.0
49452.0,STARLINK-3150,PAYLOAD,2022-03-10 14:00:01,15.088239000000002,0.0001826,53.2158,293.7753,55.1678,201.9526,0.0020196,0.00031986,0.0,0 STARLINK-3150,1 49452U 21104AW  22069.58334491  .00031986  00000-0  20196-2 0  9995,2 49452  53.2158 293.7753 0001826  55.1678 201.9526 15.08823900  3560,6917.93,95.439,541.058,538.531,0.0
49452.0,STARLINK-3150,PAYLOAD,2022-03-10 20:00:01,15.08847826,0.0001949,53.2158,292.6545,51.5456,124.265,-0.0012588,-0.00020271,0.0,0 STARLINK-3150,1 49452U 21104AW  22069.83334491 -.00020271  00000-0 -12588-2 0  9996,2 49452  53.2158 292.6545 0001949  51.5456 124.2650 15.08847826 19472,6917.856,95.437,541.07,538.373,0.0
49452.0,STARLINK-3150,PAYLOAD,2022-03-10 22:00:01,15.0883663,0.0002013,53.2158,292.2807,50.273,218.5027,0.00013417,1.848e-05,0.0,0 STARLINK-3150,1 49452U 21104AW  22069.91668981  .00001848  00000-0  13417-3 0  9999,2 49452  53.2158 292.2807 0002013  50.2730 218.5027 15.08836630  3595,6917.891,95.438,541.148,538.363,0.0
49452.0,STARLINK-3150,PAYLOAD,2022-03-11 12:00:00,15.08836488,0.000186,53.2155,289.6602,53.8688,145.1524,0.0023639,0.00037531,0.0,0 STARLINK-3150,1 49452U 21104AW  22070.50001157  .00037531  00000-0  23639-2 0  9996,2 49452  53.2155 289.6602 0001860  53.8688 145.1524 15.08836488 19578,6917.891,95.438,541.043,538.469,0.0
49452.0,STARLINK-3150,PAYLOAD,2022-03-11 14:00:01,15.08854866,0.0001864,53.2157,289.2861,55.3475,236.5692,0.00051995,8e-05,0.0,0 STARLINK-3150,1 49452U 21104AW  22070.58334491  .00008000  00000-0  51995-3 0  9990,2 49452  53.2157 289.2861 0001864  55.3475 236.5692 15.08854866  3572,6917.835,95.437,540.989,538.41,0.0
49452.0,STARLINK-3150,PAYLOAD,2022-03-11 20:00:01,15.08863641,0.000197,53.2157,288.1653,50.2922,160.3424,-0.0029388,-0.00046787,0.0,0 STARLINK-3150,1 49452U 21104AW  22070.83334491 -.00046787  00000-0 -29388-2 0  9994,2 49452  53.2157 288.1653 0001970  50.2922 160.3424 15.08863641 19629,6917.808000000001,95.436,541.036,538.31,0.0
49452.0,STARLINK-3150,PAYLOAD,2022-03-11 22:00:00,15.08839315,0.0002024,53.2158,287.7915,48.9873,254.5561,-0.00025737,-4.382e-05,0.0,0 STARLINK-3150,1 49452U 21104AW  22070.91667824 -.00004382  00000-0 -25737-3 0  9992,2 49452  53.2158 287.7915 0002024  48.9873 254.5561 15.08839315  3583,6917.882,95.438,541.148,538.347,0.0
49452.0,STARLINK-3150,PAYLOAD,2022-03-12 04:00:00,15.08848641,0.0001968,53.2156,286.6690000000001,46.6008,175.63299999999995,-0.00025314,-4.316e-05,0.0,0 STARLINK-3150,1 49452U 21104AW  22071.16667824 -.00004316  00000-0 -25314-3 0  9998,2 49452  53.2156 286.6690 0001968  46.6008 175.6330 15.08848641 19676,6917.854,95.437,541.08,538.3580000000002,0.0
49452.0,STARLINK-3150,PAYLOAD,2022-03-12 14:00:01,15.08856856,0.0001827,53.2159,284.797,52.5206,274.1956,-0.00088916,-0.00014418,0.0,0 STARLINK-3150,1 49452U 21104AW  22071.58334491 -.00014418  00000-0 -88916-3 0  9996,2 49452  53.2159 284.7970 0001827  52.5206 274.1956 15.08856856  3599,6917.829000000002,95.436,540.9580000000002,538.43,0.0
49452.0,STARLINK-3150,PAYLOAD,2022-03-12 22:00:00,15.08824498,0.0002005,53.216,283.3025,46.4378,291.8874,0.00093307,0.00014587,0.0,0 STARLINK-3150,1 49452U 21104AW  22071.91667824  .00014587  00000-0  93307-3 0  9997,2 49452  53.2160 283.3025 0002005  46.4378 291.8874 15.08824498  3590,6917.928000000001,95.439,541.18,538.406,0.0
49452.0,STARLINK-3150,PAYLOAD,2022-03-13 12:00:00,15.08815928,0.000179,53.2159,280.6819,49.6816,218.9244,0.00086309,0.00013466,0.0,0 STARLINK-3150,1 49452U 21104AW  22072.50001157  .00013466  00000-0  86309-3 0  9993,2 49452  53.2159 280.6819 0001790  49.6816 218.9244 15.08815928 19878,6917.954000000002,95.439,541.057,538.581,0.0
49452.0,STARLINK-3150,PAYLOAD,2022-03-13 14:00:01,15.08819739,0.0001794,53.2161,280.308,50.4687,311.0287,0.00074101,0.00011518,0.0,0 STARLINK-3150,1 49452U 21104AW  22072.58334491  .00011518  00000-0  74101-3 0  9994,2 49452  53.2161 280.3080 0001794  50.4687 311.0287 15.08819739  3619,6917.941999999999,95.439,541.048,538.566,0.0
49452.0,STARLINK-3150,PAYLOAD,2022-03-13 22:00:01,15.08811747,0.0001992,53.2161,278.8135,45.0667,328.0699,0.00094846,0.00014827,0.0,0 STARLINK-3150,1 49452U 21104AW  22072.91668981  .00014827  00000-0  94846-3 0  9999,2 49452  53.2161 278.8135 0001992  45.0667 328.0699 15.08811747  3605,6917.967,95.439,541.21,538.4540000000002,0.0
